{
  "norad_id": 56779,
  "name": "STARLINK-6231",
  "history": [
    {
      "epoch": "2026-03-28T22:02:16.735200",
      "apogee_km": 574.3230620527211,
      "perigee_km": 569.7581853894617,
      "latitude_deg": -11.383178667951954,
      "longitude_deg": -53.94807200017385,
      "semi_major_axis_km": 6950.177623721092,
      "eccentricity": 0.0003284,
      "inclination_deg": 69.9978,
      "raan_deg": 275.9754,
      "arg_perigee_deg": 269.0514,
      "mean_anomaly_deg": 91.0269,
      "mean_motion_rev_day": 14.98334937
    }
  ]
}